QB50P1                  
1 40025U 14033R   26193.52077436  .00005256  00000+0  25721-3 0  9994
2 40025  98.0964 206.4495 0010219 132.7489 227.4606 15.18640557656877
DTUSAT-2                
1 40030U 14033W   26194.45578631  .00003686  00000+0  19936-3 0  9992
2 40030  98.0872 193.8580 0009216 136.8517 223.3437 15.15339740656667
QB50P2                  
1 40032U 14033Y   26194.44751391  .00003667  00000+0  19750-3 0  9992
2 40032  98.0758 192.9699 0009358  88.7327 271.4975 15.15492857656642
PERSEUS-M1              
1 40039U 14033AF  26194.39507826  .00001321  00000+0  12405-3 0  9990
2 40039  97.9652 138.9596 0010803 202.5697 157.5050 14.95711497654556
POLYITAN-1              
1 40042U 14033AJ  26193.56228347  .00012606  00000+0  38349-3 0  9993
2 40042  98.0940 222.2395 0008123  71.5850 288.6273 15.34156417657480
TIGRISAT                
1 40043U 14033AK  26194.39082255  .00000829  00000+0  10106-3 0  9997
2 40043  97.7860 343.8076 0048774 350.2970   9.7298 14.85246548649514
CANX-4                  
1 40055U 14034C   26194.09089748  .00000466  00000+0  67045-4 0  9994
2 40055  98.3087  70.3511 0011470 290.4106  69.5873 14.81309217648364
CANX-5                  
1 40056U 14034D   26194.08902816  .00000469  00000+0  67442-4 0  9998
2 40056  98.3089  70.3942 0011468 290.6384  69.3597 14.81326588639172
GONETS-M 10             
1 40063U 14036C   26194.47226292 -.00000014  00000+0 -17619-3 0  9996
2 40063  82.5124 291.3488 0022976  86.0025 274.3681 12.42946004545512
METEOR-M 2              
1 40069U 14037A   26194.47140146  .00000319  00000+0  16521-3 0  9993
2 40069  98.5122 169.2809 0005287 332.7023  27.3877 14.21470221623059
DX1                     
1 40071U 14037C   26194.48424794  .00000092  00000+0  16000-4 0  9992
2 40071  98.3874 157.7851 0006823 175.0414 185.0871 14.90057907650023
UKUBE-1                 
1 40074U 14037F   26194.47683774  .00004476  00000+0  25133-3 0  9995
2 40074  98.4240 200.5192 0003327  92.0376 268.1233 15.13935151652535
GAOFEN-2                
1 40118U 14049A   26194.52749360  .00000400  00000+0  58573-4 0  9995
2 40118  98.0104 258.7081 0008124 139.3515 220.8305 14.80925976643139
BRITE-PL2 (HEWELIUSZ)   
1 40119U 14049B   26194.01388840  .00000806  00000+0  79660-4 0  9992
2 40119  97.9119 306.2169 0014541  29.3912 330.8123 14.94683999645301
CBERS 4                 
1 40336U 14079A   26194.52388556  .00000193  00000+0  81728-4 0  9993
2 40336  98.3525 250.5274 0000877  52.5420 307.5846 14.35516203607731
SMAP                    
1 40376U 15003A   26194.47295979  .00000200  00000+0  47754-4 0  9995
2 40376  98.1283 201.1958 0001588  95.4701 264.6682 14.63388290611463
GONETS-M 11             
1 40552U 15020A   26194.49205507  .00000172  00000+0  11697-2 0  9993
2 40552  82.4862  14.5974 0015453 307.2692  52.6978 12.42878999512009
GONETS-M 12             
1 40553U 15020B   26194.46526326  .00000178  00000+0  12156-2 0  9993
2 40553  82.4895  15.7449 0014299 291.3582  68.5972 12.42892654511995
GONETS-M 13             
1 40554U 15020C   26194.51968122  .00000108  00000+0  70876-3 0  9991
2 40554  82.4857  14.3183 0012808 275.0456  84.9161 12.42872120511973
DMC3-FM1                
1 40715U 15032A   26194.53819065  .00000239  00000+0  33441-4 0  9999
2 40715  97.6439  58.6764 0005100 344.3522  15.7535 14.85767243593822
DMC3-FM2                
1 40716U 15032B   26194.49278955 -.00000243  00000+0 -22038-4 0  9999
2 40716  97.6492  60.2241 0005742 348.0177  12.0902 14.85770477593810
DMC3-FM3                
1 40717U 15032C   26194.51630660  .00000381  00000+0  49817-4 0  9993
2 40717  97.6542  62.0162 0004919 350.1817   9.9302 14.85761002593823
CARBONITE 1 (CBNT-1)    
1 40718U 15032D   26194.48563075  .00000423  00000+0  57303-4 0  9991
2 40718  97.6515  11.4535 0013704 202.9641 157.0963 14.83663639593246
LILACSAT-2              
1 40908U 15049K   26194.51565442  .00012095  00000+0  20012-3 0  9998
2 40908  97.4627 232.3688 0008320 146.4565 213.7216 15.52318321599831
COSMOS 2507 (RODNIK-S *)
1 40920U 15050A   26194.47340587 -.00000026  00000+0 -25869-3 0  9998
2 40920  82.4916  63.3027 0009096 297.5687  62.4468 12.42927153490128
COSMOS 2508 (RODNIK-S *)
1 40921U 15050B   26194.50916884  .00000034  00000+0  17754-3 0  9993
2 40921  82.4868  61.7754 0014019 330.6744  29.3547 12.42914994490116
COSMOS 2509 (RODNIK-S *)
1 40922U 15050C   26194.44965657  .00000037  00000+0  19444-3 0  9990
2 40922  82.4876  61.9176 0014694 348.0699  12.0030 12.42884485490147
