OBJECT_NAME,OBJECT_ID,EPOCH,MEAN_MOTION,ECCENTRICITY,INCLINATION,RA_OF_ASC_NODE,ARG_OF_PERICENTER,MEAN_ANOMALY,EPHEMERIS_TYPE,CLASSIFICATION_TYPE,NORAD_CAT_ID,ELEMENT_SET_NO,REV_AT_EPOCH,BSTAR,MEAN_MOTION_DOT,MEAN_MOTION_DDOT
QB50P1,2014-033R,2026-07-12T12:29:54.904704,15.18640557,.00102199,98.0964,206.4495,132.7489,227.4606,0,U,40025,999,65687,.25721199E-3,.5256E-4,0
DTUSAT-2,2014-033W,2026-07-13T10:56:19.937184,15.15339740,.0009216,98.0872,193.8580,136.8517,223.3437,0,U,40030,999,65666,.19936E-3,.3686E-4,0
QB50P2,2014-033Y,2026-07-13T10:44:25.201824,15.15492857,.0009358,98.0758,192.9699,88.7327,271.4975,0,U,40032,999,65664,.1975E-3,.3667E-4,0
PERSEUS-M1,2014-033AF,2026-07-13T09:28:54.761664,14.95711497,.0010803,97.9652,138.9596,202.5697,157.5050,0,U,40039,999,65455,.12405E-3,.1321E-4,0
POLYITAN-1,2014-033AJ,2026-07-12T13:29:41.291808,15.34156417,.0008123,98.0940,222.2395,71.5850,288.6273,0,U,40042,999,65748,.38349E-3,.12606E-3,0
TIGRISAT,2014-033AK,2026-07-13T09:22:47.068320,14.85246548,.0048774,97.7860,343.8076,350.2970,9.7298,0,U,40043,999,64951,.10106E-3,.829E-5,0
CANX-4,2014-034C,2026-07-13T02:10:53.542272,14.81309217,.00114702,98.3087,70.3511,290.4106,69.5873,0,U,40055,999,64836,.67044927E-4,.466E-5,0
CANX-5,2014-034D,2026-07-13T02:08:12.033024,14.81326588,.0011468,98.3089,70.3942,290.6384,69.3597,0,U,40056,999,63917,.6744247E-4,.469E-5,0
GONETS-M 10,2014-036C,2026-07-13T11:20:03.516288,12.42946004,.0022976,82.5124,291.3488,86.0025,274.3681,0,U,40063,999,54551,-.17619E-3,-.14E-6,0
METEOR-M 2,2014-037A,2026-07-13T11:18:49.086144,14.21470221,.0005287,98.5122,169.2809,332.7023,27.3877,0,U,40069,999,62305,.16521E-3,.319E-5,0
DX1,2014-037C,2026-07-13T11:37:19.022016,14.90057907,.0006823,98.3874,157.7851,175.0414,185.0871,0,U,40071,999,65002,.16E-4,.92E-6,0
UKUBE-1,2014-037F,2026-07-13T11:26:38.780736,15.13935151,.0003327,98.4240,200.5192,92.0376,268.1233,0,U,40074,999,65253,.25133E-3,.4476E-4,0
GAOFEN-2,2014-049A,2026-07-13T12:39:35.447040,14.80925976,.0008124,98.0104,258.7081,139.3515,220.8305,0,U,40118,999,64313,.58573E-4,.4E-5,0
BRITE-PL2 (HEWELIUSZ),2014-049B,2026-07-13T00:19:59.957760,14.94683999,.00145416,97.9119,306.2169,29.3912,330.8123,0,U,40119,999,64530,.79659874E-4,.806E-5,0
CBERS 4,2014-079A,2026-07-13T12:34:23.712384,14.35516203,.0000877,98.3525,250.5274,52.5420,307.5846,0,U,40336,999,60773,.81728E-4,.193E-5,0
SMAP,2015-003A,2026-07-13T11:21:03.725856,14.63388290,.0001588,98.1283,201.1958,95.4701,264.6682,0,U,40376,999,61146,.47754E-4,.2E-5,0
GONETS-M 11,2015-020A,2026-07-13T11:48:33.558048,12.42878999,.0015453,82.4862,14.5974,307.2692,52.6978,0,U,40552,999,51200,.11697E-2,.172E-5,0
GONETS-M 12,2015-020B,2026-07-13T11:09:58.745664,12.42892654,.0014299,82.4895,15.7449,291.3582,68.5972,0,U,40553,999,51199,.12156E-2,.178E-5,0
GONETS-M 13,2015-020C,2026-07-13T12:28:20.457408,12.42872120,.0012808,82.4857,14.3183,275.0456,84.9161,0,U,40554,999,51197,.70876E-3,.108E-5,0
DMC3-FM1,2015-032A,2026-07-13T12:54:59.672160,14.85767243,.00051,97.6439,58.6764,344.3522,15.7535,0,U,40715,999,59382,.33441E-4,.239E-5,0
DMC3-FM2,2015-032B,2026-07-13T11:49:37.017120,14.85770477,.0005742,97.6492,60.2241,348.0177,12.0902,0,U,40716,999,59381,-.22038E-4,-.243E-5,0
DMC3-FM3,2015-032C,2026-07-13T12:23:28.890240,14.85761002,.0004919,97.6542,62.0162,350.1817,9.9302,0,U,40717,999,59382,.49817E-4,.381E-5,0
CARBONITE 1 (CBNT-1),2015-032D,2026-07-13T11:39:18.496800,14.83663639,.0013704,97.6515,11.4535,202.9641,157.0963,0,U,40718,999,59324,.57303E-4,.423E-5,0
LILACSAT-2,2015-049K,2026-07-13T12:22:32.541888,15.52318321,.000832,97.4627,232.3688,146.4565,213.7216,0,U,40908,999,59983,.20012E-3,.12095E-3,0
COSMOS 2507 (RODNIK-S 13),2015-050A,2026-07-13T11:21:42.267168,12.42927153,.0009096,82.4916,63.3027,297.5687,62.4468,0,U,40920,999,49012,-.25869E-3,-.26E-6,0
COSMOS 2508 (RODNIK-S 14),2015-050B,2026-07-13T12:13:12.187776,12.42914994,.0014019,82.4868,61.7754,330.6744,29.3547,0,U,40921,999,49011,.17754E-3,.34E-6,0
COSMOS 2509 (RODNIK-S 15),2015-050C,2026-07-13T10:47:30.327648,12.42884485,.0014694,82.4876,61.9176,348.0699,12.0030,0,U,40922,999,49014,.19444E-3,.37E-6,0
